NORAD_CAT_ID,OBJECT_NAME,OBJECT_TYPE,EPOCH,MEAN_MOTION,ECCENTRICITY,INCLINATION,RA_OF_ASC_NODE,ARG_OF_PERICENTER,MEAN_ANOMALY,BSTAR,MEAN_MOTION_DOT,MEAN_MOTION_DDOT,TLE_LINE0,TLE_LINE1,TLE_LINE2,SEMIMAJOR_AXIS,PERIOD,APOGEE,PERIGEE,DECAYED
55931.0,STARLINK-5897,PAYLOAD,2024-05-31 04:46:06,14.98329874,0.0002804,69.9987,136.8359,265.3825,94.7014,-9.0571e-06,-2.01e-06,0.0,0 STARLINK-5897,1 55931U 23037T   24152.19868081 -.00000201  00000-0 -90571-5 0  9995,2 55931  69.9987 136.8359 0002804 265.3825  94.7014 14.98329874 66847,6950.193,96.107,574.007,570.109,0.0
55931.0,STARLINK-5897,PAYLOAD,2024-05-31 07:58:22,14.98329726,0.0002801,69.9988,136.4993,264.9008,95.1831,-1.0408e-05,-2.17e-06,0.0,0 STARLINK-5897,1 55931U 23037T   24152.33220088 -.00000217  00000-0 -10408-4 0  9997,2 55931  69.9988 136.4993 0002801 264.9008  95.1831 14.98329726 66526,6950.194,96.107,574.005,570.112,0.0
55931.0,STARLINK-5897,PAYLOAD,2024-06-01 04:48:06,14.98332146,0.0002865,69.9986,134.3104,268.7553,91.3278,-1.5218e-05,-2.75e-06,0.0,0 STARLINK-5897,1 55931U 23037T   24153.20007847 -.00000275  00000-0 -15218-4 0  9998,2 55931  69.9986 134.3104 0002865 268.7553  91.3278 14.98332146 66996,6950.186,96.107,574.042,570.06,0.0
55931.0,STARLINK-5897,PAYLOAD,2024-06-01 09:36:30,14.98333225,0.000285,69.9986,133.8055,268.5062,91.5771,-1.7627e-06,-1.14e-06,0.0,0 STARLINK-5897,1 55931U 23037T   24153.40035700 -.00000114  00000-0 -17627-5 0  9998,2 55931  69.9986 133.8055 0002850 268.5062  91.5771 14.98333225 66687,6950.183,96.107,574.029,570.067,0.0
55931.0,STARLINK-5897,PAYLOAD,2024-06-02 04:50:08,14.98326383,0.0002871,69.9987,131.7854,269.7879,90.2951,-1.381e-05,-2.58e-06,0.0,0 STARLINK-5897,1 55931U 23037T   24154.20148166 -.00000258  00000-0 -13810-4 0  9996,2 55931  69.9987 131.7854 0002871 269.7879  90.2951 14.98326383 67149,6950.204,96.107,574.064,570.074,0.0
55931.0,STARLINK-5897,PAYLOAD,2024-06-02 08:02:24,14.98327444,0.0002848,69.9988,131.4487,269.9856,90.0977,4.5388e-07,-8.8e-07,0.0,0 STARLINK-5897,1 55931U 23037T   24154.33500083 -.00000088  00000-0  45388-6 0  9997,2 55931  69.9988 131.4487 0002848 269.9856  90.0977 14.98327444 66829,6950.201,96.107,574.045,570.086,0.0
55931.0,STARLINK-5897,PAYLOAD,2024-06-03 04:52:08,14.98329952,0.0002862,69.9989,129.2604,269.7725,90.3106,-8.496e-08,-9.4e-07,0.0,0 STARLINK-5897,1 55931U 23037T   24155.20287963 -.00000094  00000-0 -84960-7 0  9991,2 55931  69.9989 129.2604 0002862 269.7725  90.3106 14.98329952 67290,6950.193,96.107,574.047,570.069,0.0
55931.0,STARLINK-5897,PAYLOAD,2024-06-03 08:04:24,14.98330761,0.0002855,69.999,128.9237,269.7938,90.2894,9.7264e-06,2.3e-07,0.0,0 STARLINK-5897,1 55931U 23037T   24155.33639885  .00000023  00000-0  97264-5 0  9998,2 55931  69.9990 128.9237 0002855 269.7938  90.2894 14.98330761 66975,6950.191,96.107,574.04,570.071,0.0
55931.0,STARLINK-5897,PAYLOAD,2024-06-03 16:05:05,14.98330826,0.0002856,69.9992,128.0818,270.0248,90.0584,1.1631e-05,4.6e-07,0.0,0 STARLINK-5897,1 55931U 23037T   24155.67019852  .00000046  00000-0  11631-4 0  9999,2 55931  69.9992 128.0818 0002856 270.0248  90.0584 14.98330826 67026,6950.19,96.107,574.04,570.07,0.0
55931.0,STARLINK-5897,PAYLOAD,2024-06-04 04:54:09,14.98331764,0.0002901,69.999,126.7356,270.363,89.7196,5.2934e-05,5.39e-06,0.0,0 STARLINK-5897,1 55931U 23037T   24156.20427648  .00000539  00000-0  52934-4 0  9993,2 55931  69.9990 126.7356 0002901 270.3630  89.7196 14.98331764 67447,6950.187,96.107,574.069,570.036,0.0
55931.0,STARLINK-5897,PAYLOAD,2024-06-04 08:06:25,14.98332588,0.000288,69.9991,126.3989,270.3227,89.7602,6.1103e-05,6.36e-06,0.0,0 STARLINK-5897,1 55931U 23037T   24156.33779554  .00000636  00000-0  61103-4 0  9999,2 55931  69.9991 126.3989 0002880 270.3227  89.7602 14.98332588 67126,6950.185,96.107,574.052,570.048,0.0
55931.0,STARLINK-5897,PAYLOAD,2024-06-05 04:56:10,14.98333821,0.0002878,69.999,124.2108,270.4835,89.5994,2.6076e-05,2.18e-06,0.0,0 STARLINK-5897,1 55931U 23037T   24157.20567447  .00000218  00000-0  26076-4 0  9998,2 55931  69.9990 124.2108 0002878 270.4835  89.5994 14.98333821 67592,6950.181,96.107,574.046,570.046,0.0
55931.0,STARLINK-5897,PAYLOAD,2024-06-05 14:32:59,14.98328393,0.0002825,69.9992,123.2006,271.5245,88.559,-4.3824e-05,-6.16e-06,0.0,0 STARLINK-5897,1 55931U 23037T   24157.60623910 -.00000616  00000-0 -43824-4 0  9994,2 55931  69.9992 123.2006 0002825 271.5245  88.5590 14.98328393 67318,6950.198,96.107,574.026,570.099,0.0
55931.0,STARLINK-5897,PAYLOAD,2024-06-05 20:57:31,14.98330024,0.000249,70.0009,122.5272,272.7734,87.314,-6.2052e-05,-8.33e-06,0.0,0 STARLINK-5897,1 55931U 23037T   24157.87328025 -.00000833  00000-0 -62052-4 0  9997,2 55931  70.0009 122.5272 0002490 272.7734  87.3140 14.98330024 67694,6950.193,96.107,573.788,570.327,0.0
55931.0,STARLINK-5897,PAYLOAD,2024-06-06 14:34:59,14.98338493,0.0002654,70.0006,120.6756,272.716,87.3696,-0.00020194,-2.502e-05,0.0,0 STARLINK-5897,1 55931U 23037T   24158.60763737 -.00002502  00000-0 -20194-3 0  9997,2 55931  70.0006 120.6756 0002654 272.7160  87.3696 14.98338493 67461,6950.167,96.106,573.876,570.187,0.0
55931.0,STARLINK-5897,PAYLOAD,2024-06-06 20:59:32,14.98324947,0.000261,70.0005,120.0024,272.4863,87.5997,3.3631e-05,3.08e-06,0.0,0 STARLINK-5897,1 55931U 23037T   24158.87467926  .00000308  00000-0  33631-4 0  9998,2 55931  70.0005 120.0024 0002610 272.4863  87.5997 14.98324947 67848,6950.209,96.107,573.888,570.26,0.0
55931.0,STARLINK-5897,PAYLOAD,2024-06-07 14:37:00,14.98341765,0.0002693,70.0008,118.1505,274.8632,85.222,-0.000213,-2.634e-05,0.0,0 STARLINK-5897,1 55931U 23037T   24159.60903533 -.00002634  00000-0 -21300-3 0  9994,2 55931  70.0008 118.1505 0002693 274.8632  85.2220 14.98341765 67610,6950.157,96.106,573.893,570.15,0.0
55931.0,STARLINK-5897,PAYLOAD,2024-06-07 22:37:41,14.98328983,0.0002769,70.0003,117.3096,273.589,86.4952,5.8181e-05,6.01e-06,0.0,0 STARLINK-5897,1 55931U 23037T   24159.94283676  .00000601  00000-0  58181-4 0  9998,2 55931  70.0003 117.3096 0002769 273.5890  86.4952 14.98328983 67664,6950.196,96.107,573.986,570.137,0.0
55931.0,STARLINK-5897,PAYLOAD,2024-06-08 14:39:02,14.9831534,0.0002568,69.9995,115.6252,276.5663,83.5204,0.00014945,1.69e-05,0.0,0 STARLINK-5897,1 55931U 23037T   24160.61044439  .00001690  00000-0  14945-3 0  9994,2 55931  69.9995 115.6252 0002568 276.5663  83.5204 14.98315340 67766,6950.238,96.108,573.888,570.318,0.0
55931.0,STARLINK-5897,PAYLOAD,2024-06-08 21:03:34,14.9832405,0.0002847,69.9996,114.9529,271.5838,88.4995,-7.6788e-07,-1.02e-06,0.0,0 STARLINK-5897,1 55931U 23037T   24160.87748132 -.00000102  00000-0 -76788-6 0  9998,2 55931  69.9996 114.9529 0002847 271.5838  88.4995 14.98324050 68147,6950.211,96.107,574.055,570.098,0.0
55931.0,STARLINK-5897,PAYLOAD,2024-06-08 22:39:42,14.98323115,0.0002932,70.0,114.7843,271.0835,88.9989,-1.7804e-05,-3.05e-06,0.0,0 STARLINK-5897,1 55931U 23037T   24160.94424242 -.00000305  00000-0 -17804-4 0  9996,2 55931  70.0000 114.7843 0002932 271.0835  88.9989 14.98323115 67812,6950.214,96.107,574.117,570.041,0.0
55931.0,STARLINK-5897,PAYLOAD,2024-06-09 14:41:02,14.98328503,0.0002984,69.9995,113.1008,270.3265,89.7553,-1.9652e-05,-3.27e-06,0.0,0 STARLINK-5897,1 55931U 23037T   24161.61184024 -.00000327  00000-0 -19652-4 0  9999,2 55931  69.9995 113.1008 0002984 270.3265  89.7553 14.98328503 67917,6950.198,96.107,574.136,569.989,0.0
55931.0,STARLINK-5897,PAYLOAD,2024-06-09 21:05:35,14.98328568,0.0003021,69.9991,112.4278,269.9652,90.1161,1.0399e-05,3.1e-07,0.0,0 STARLINK-5897,1 55931U 23037T   24161.87887941  .00000031  00000-0  10399-4 0  9994,2 55931  69.9991 112.4278 0003021 269.9652  90.1161 14.98328568 68295,6950.197,96.107,574.162,569.963,0.0
55931.0,STARLINK-5897,PAYLOAD,2024-06-09 22:41:43,14.98328296,0.0003025,69.9993,112.2592,270.0147,90.0665,6.1698e-06,-1.9e-07,0.0,0 STARLINK-5897,1 55931U 23037T   24161.94563968 -.00000019  00000-0  61698-5 0  9998,2 55931  69.9993 112.2592 0003025 270.0147  90.0665 14.98328296 67969,6950.198,96.107,574.166,569.961,0.0
55931.0,STARLINK-5897,PAYLOAD,2024-06-10 06:42:23,14.98334399,0.0003023,69.9994,111.4182,269.4614,90.6199,1.2845e-05,6e-07,0.0,0 STARLINK-5897,1 55931U 23037T   24162.27943559  .00000060  00000-0  12845-4 0  9997,2 55931  69.9994 111.4182 0003023 269.4614  90.6199 14.98334399 68011,6950.179,96.107,574.145,569.943,0.0
55931.0,STARLINK-5897,PAYLOAD,2024-06-10 21:07:36,14.98327103,0.0003057,69.9995,109.9034,269.3934,90.6875,6.9622e-05,7.38e-06,0.0,0 STARLINK-5897,1 55931U 23037T   24162.88027815  .00000738  00000-0  69622-4 0  9999,2 55931  69.9995 109.9034 0003057 269.3934  90.6875 14.98327103 68444,6950.202,96.107,574.192,569.942,0.0
55931.0,STARLINK-5897,PAYLOAD,2024-06-10 22:43:44,14.98326986,0.0003059,69.9995,109.735,269.3803,90.7005,6.6913e-05,7.05e-06,0.0,0 STARLINK-5897,1 55931U 23037T   24162.94703839  .00000705  00000-0  66913-4 0  9997,2 55931  69.9995 109.7350 0003059 269.3803  90.7005 14.98326986 68118,6950.202,96.107,574.193,569.941,0.0
55931.0,STARLINK-5897,PAYLOAD,2024-06-11 13:08:56,14.98331516,0.0003042,69.9997,108.2204,269.6434,90.4377,6.9591e-05,7.37e-06,0.0,0 STARLINK-5897,1 55931U 23037T   24163.54787499  .00000737  00000-0  69591-4 0  9998,2 55931  69.9997 108.2204 0003042 269.6434  90.4377 14.98331516 68201,6950.188,96.107,574.167,569.939,0.0
55931.0,STARLINK-5897,PAYLOAD,2024-06-12 05:10:16,14.98335885,0.0002821,70.0001,106.5384,266.7927,93.2909,5.0344e-05,5.08e-06,0.0,0 STARLINK-5897,1 55931U 23037T   24164.21547170  .00000508  00000-0  50344-4 0  9995,2 55931  70.0001 106.5384 0002821 266.7927  93.2909 14.98335885 68642,6950.175,96.107,574.0,570.079,0.0
55931.0,STARLINK-5897,PAYLOAD,2024-06-12 21:11:38,14.98326401,0.0002694,70.0004,104.8551,269.4052,90.6798,-6.0556e-05,-8.15e-06,0.0,0 STARLINK-5897,1 55931U 23037T   24164.88308017 -.00000815  00000-0 -60556-4 0  9992,2 55931  70.0004 104.8551 0002694 269.4052  90.6798 14.98326401 68741,6950.204,96.107,573.941,570.197,0.0
